{
    "links": {
        "self": "http://www.neowsapp.com/rest/v1/neo/3789636?api_key=iIulBulltgU6a56xZRHN4H3l9WmuAYTsLGpBGhQ2"
    },
    "id": "3789636",
    "neo_reference_id": "3789636",
    "name": "(2017 WB14)",
    "designation": "2017 WB14",
    "nasa_jpl_url": "http://ssd.jpl.nasa.gov/sbdb.cgi?sstr=3789636",
    "absolute_magnitude_h": 25.0,
    "estimated_diameter": {
        "kilometers": {
            "estimated_diameter_min": 0.02658,
            "estimated_diameter_max": 0.0594346868
        },
        "meters": {
            "estimated_diameter_min": 26.58,
            "estimated_diameter_max": 59.4346868419
        },
        "miles": {
            "estimated_diameter_min": 0.0165160412,
            "estimated_diameter_max": 0.0369309908
        },
        "feet": {
            "estimated_diameter_min": 87.2047272,
            "estimated_diameter_max": 194.9956979785
        }
    },
    "is_potentially_hazardous_asteroid": false,
    "close_approach_data": [
        {
            "close_approach_date": "2015-11-26",
            "close_approach_date_full": "2015-Nov-26 08:46",
            "epoch_date_close_approach": 1448527560000,
            "relative_velocity": {
                "kilometers_per_second": "17.2247011873",
                "kilometers_per_hour": "62008.9242741313",
                "miles_per_hour": "38529.934085779"
            },
            "miss_distance": {
                "astronomical": "0.3181186139",
                "lunar": "123.7481408071",
                "kilometers": "47589867.046792393",
                "miles": "29570972.1586773034"
            },
            "orbiting_body": "Earth"
        },
        {
            "close_approach_date": "2017-11-15",
            "close_approach_date_full": "2017-Nov-15 11:18",
            "epoch_date_close_approach": 1510744680000,
            "relative_velocity": {
                "kilometers_per_second": "12.4219481979",
                "kilometers_per_hour": "44719.0135125203",
                "miles_per_hour": "27786.6559239324"
            },
            "miss_distance": {
                "astronomical": "0.0919692828",
                "lunar": "35.7760510092",
                "kilometers": "13758408.812307636",
                "miles": "8549078.8099159368"
            },
            "orbiting_body": "Earth"
        },
        {
            "close_approach_date": "2019-11-06",
            "close_approach_date_full": "2019-Nov-06 05:24",
            "epoch_date_close_approach": 1573017840000,
            "relative_velocity": {
                "kilometers_per_second": "11.4456860445",
                "kilometers_per_hour": "41204.4697603195",
                "miles_per_hour": "25602.8551130163"
            },
            "miss_distance": {
                "astronomical": "0.2624773194",
                "lunar": "102.1036772466",
                "kilometers": "39266047.905549678",
                "miles": "24398790.7815464364"
            },
            "orbiting_body": "Earth"
        }
    ],
    "orbital_data": {
        "orbit_id": "2",
        "orbit_determination_date": "2017-11-28 06:49:08",
        "first_observation_date": "2017-11-21",
        "last_observation_date": "2017-11-27",
        "data_arc_in_days": 6,
        "observations_used": 13,
        "orbit_uncertainty": "8",
        "minimum_orbit_intersection": ".0875246",
        "jupiter_tisserand_invariant": "4.295",
        "epoch_osculation": "2458079.5",
        "eccentricity": ".3352543458336112",
        "semi_major_axis": "1.564851253209178",
        "inclination": "20.23917609204252",
        "ascending_node_longitude": "56.94459367221996",
        "orbital_period": "715.0032566536532",
        "perihelion_distance": "1.040228069987628",
        "perihelion_argument": "327.241240959643",
        "aphelion_distance": "2.089474436430727",
        "perihelion_time": "2458047.342870946571",
        "mean_anomaly": "16.19092829508903",
        "mean_motion": ".5034942102010364",
        "equinox": "J2000",
        "orbit_class": {
            "orbit_class_type": "AMO",
            "orbit_class_description": "Near-Earth asteroid orbits similar to that of 1221 Amor",
            "orbit_class_range": "1.017 AU < q (perihelion) < 1.3 AU"
        }
    },
    "is_sentry_object": false
}